[{"OBJECT_NAME":"STARLINK-32388","OBJECT_ID":"2024-224F","EPOCH":"2026-03-09T07:09:08.392320","MEAN_MOTION":15.27580355,"ECCENTRICITY":5.145e-5,"INCLINATION":42.9965,"RA_OF_ASC_NODE":167.7919,"ARG_OF_PERICENTER":206.7672,"MEAN_ANOMALY":153.3153,"EPHEMERIS_TYPE":0,"CLASSIFICATION_TYPE":"U","NORAD_CAT_ID":62144,"ELEMENT_SET_NO":999,"REV_AT_EPOCH":7233,"BSTAR":0.0010993082,"MEAN_MOTION_DOT":0.00030112,"MEAN_MOTION_DDOT":0},{"OBJECT_NAME":"COSMOS 249 DEB","OBJECT_ID":"1968-091DJ","EPOCH":"2026-03-09T22:59:41.072064","MEAN_MOTION":14.2447733,"ECCENTRICITY":0.04678273,"INCLINATION":62.7651,"RA_OF_ASC_NODE":269.2895,"ARG_OF_PERICENTER":43.0913,"MEAN_ANOMALY":320.579,"EPHEMERIS_TYPE":0,"CLASSIFICATION_TYPE":"U","NORAD_CAT_ID":19362,"ELEMENT_SET_NO":999,"REV_AT_EPOCH":90582,"BSTAR":0.0013749035,"MEAN_MOTION_DOT":0.00010099,"MEAN_MOTION_DDOT":0}]
